{"type": "FeatureCollection", "features": [ {"type": "Feature", "properties": {"norad_id": 30386, "name": "FENGYUN 1C DEB", "group": "fengyun-1c-debris", "lat": -79.9161017898833, "lon": 14.656738233727925, "alt_km": 1240.3496817871437, "timestamp": "2025-12-26T06:43:29.787716+00:00", "meta": {"OBJECT_NAME": "FENGYUN 1C DEB", "OBJECT_ID": "1999-025ACZ", "EPOCH": "2025-12-24T16:24:06.770016", "MEAN_MOTION": 13.55610958, "ECCENTRICITY": 0.03043556, "INCLINATION": 98.6909, "RA_OF_ASC_NODE": 252.5703, "ARG_OF_PERICENTER": 124.6608, "MEAN_ANOMALY": 269.5784, "EPHEMERIS_TYPE": 0, "CLASSIFICATION_TYPE": "U", "NORAD_CAT_ID": 30386, "ELEMENT_SET_NO": 999, "REV_AT_EPOCH": 92991, "BSTAR": 0.0019056002, "MEAN_MOTION_DOT": 1.75e-05, "MEAN_MOTION_DDOT": 0}, "tle": {"line1": "1 30386U 99025ACZ 25358.68341169  .00001750  00000+0  19056-2 0  9991", "line2": "2 30386  98.6909 252.5703 0304355 124.6608 269.5784 13.55610958929918"}}, "geometry": {"type": "Point", "coordinates": [14.656738233727925, -79.9161017898833]}}, {"type": "Feature", "properties": {"norad_id": 30387, "name": "FENGYUN 1C DEB", "group": "fengyun-1c-debris", "lat": 17.997399393431554, "lon": 12.109344096621129, "alt_km": 842.1140752292258, "timestamp": "2025-12-26T06:43:29.787726+00:00", "meta": {"OBJECT_NAME": "FENGYUN 1C DEB", "OBJECT_ID": "1999-025ADA", "EPOCH": "2025-12-25T12:41:17.863008", "MEAN_MOTION": 14.15065168, "ECCENTRICITY": 0.0001151, "INCLINATION": 98.656, "RA_OF_ASC_NODE": 14.2169, "ARG_OF_PERICENTER": 90.6992, "MEAN_ANOMALY": 61.3287, "EPHEMERIS_TYPE": 0, "CLASSIFICATION_TYPE": "U", "NORAD_CAT_ID": 30387, "ELEMENT_SET_NO": 999, "REV_AT_EPOCH": 97505, "BSTAR": 0.00024648, "MEAN_MOTION_DOT": 4.35e-06, "MEAN_MOTION_DDOT": 0}, "tle": {"line1": "1 30387U 99025ADA 25359.52867897  .00000435  00000+0  24648-3 0  9990", "line2": "2 30387  98.6560  14.2169 0001151  90.6992  61.3287 14.15065168975053"}}, "geometry": {"type": "Point", "coordinates": [12.109344096621129, 17.997399393431554]}}, {"type": "Feature", "properties": {"norad_id": 30388, "name": "FENGYUN 1C DEB", "group": "fengyun-1c-debris", "lat": 15.754363318615733, "lon": -156.98374310739732, "alt_km": 947.8721142832164, "timestamp": "2025-12-26T06:43:29.787736+00:00", "meta": {"OBJECT_NAME": "FENGYUN 1C DEB", "OBJECT_ID": "1999-025ADB", "EPOCH": "2025-12-25T18:23:49.483680", "MEAN_MOTION": 14.19800613, "ECCENTRICITY": 0.02215494, "INCLINATION": 98.5984, "RA_OF_ASC_NODE": 20.0705, "ARG_OF_PERICENTER": 25.2304, "MEAN_ANOMALY": 33.0947, "EPHEMERIS_TYPE": 0, "CLASSIFICATION_TYPE": "U", "NORAD_CAT_ID": 30388, "ELEMENT_SET_NO": 999, "REV_AT_EPOCH": 97617, "BSTAR": 0.00048130701, "MEAN_MOTION_DOT": 1.259e-05, "MEAN_MOTION_DDOT": 0}, "tle": {"line1": "1 30388U 99025ADB 25359.76654495  .00001259  00000+0  48131-3 0  9993", "line2": "2 30388  98.5984  20.0705 0221549  25.2304  33.0947 14.19800613976179"}}, "geometry": {"type": "Point", "coordinates": [-156.98374310739732, 15.754363318615733]}}, {"type": "Feature", "properties": {"norad_id": 30389, "name": "FENGYUN 1C DEB", "group": "fengyun-1c-debris", "lat": -44.95289059113892, "lon": 90.9767700186778, "alt_km": 757.778081822793, "timestamp": "2025-12-26T06:43:29.787746+00:00", "meta": {"OBJECT_NAME": "FENGYUN 1C DEB", "OBJECT_ID": "1999-025ADC", "EPOCH": "2025-12-25T18:11:48.293376", "MEAN_MOTION": 14.4425094, "ECCENTRICITY": 0.0014701, "INCLINATION": 98.8368, "RA_OF_ASC_NODE": 81.4998, "ARG_OF_PERICENTER": 186.6642, "MEAN_ANOMALY": 295.1215, "EPHEMERIS_TYPE": 0, "CLASSIFICATION_TYPE": "U", "NORAD_CAT_ID": 30389, "ELEMENT_SET_NO": 999, "REV_AT_EPOCH": 97974, "BSTAR": 0.0024357137, "MEAN_MOTION_DOT": 8.341e-05, "MEAN_MOTION_DDOT": 0}, "tle": {"line1": "1 30389U 99025ADC 25359.75819784  .00008341  00000+0  24357-2 0  9999", "line2": "2 30389  98.8368  81.4998 0014701 186.6642 295.1215 14.44250940979746"}}, "geometry": {"type": "Point", "coordinates": [90.9767700186778, -44.95289059113892]}}, {"type": "Feature", "properties": {"norad_id": 30390, "name": "FENGYUN 1C DEB", "group": "fengyun-1c-debris", "lat": 2.086107420087596, "lon": -96.01242826191601, "alt_km": 764.8647308683267, "timestamp": "2025-12-26T06:43:29.787757+00:00", "meta": {"OBJECT_NAME": "FENGYUN 1C DEB", "OBJECT_ID": "1999-025ADD", "EPOCH": "2025-12-24T05:19:11.456832", "MEAN_MOTION": 14.29826892, "ECCENTRICITY": 0.00677338, "INCLINATION": 98.8223, "RA_OF_ASC_NODE": 81.5783, "ARG_OF_PERICENTER": 131.6584, "MEAN_ANOMALY": 255.3289, "EPHEMERIS_TYPE": 0, "CLASSIFICATION_TYPE": "U", "NORAD_CAT_ID": 30390, "ELEMENT_SET_NO": 999, "REV_AT_EPOCH": 97548, "BSTAR": 0.0017392471, "MEAN_MOTION_DOT": 4.542e-05, "MEAN_MOTION_DDOT": 0}, "tle": {"line1": "1 30390U 99025ADD 25358.22166038  .00004542  00000+0  17392-2 0  9999", "line2": "2 30390  98.8223  81.5783 0067733 131.6584 255.3289 14.29826892975483"}}, "geometry": {"type": "Point", "coordinates": [-96.01242826191601, 2.086107420087596]}}, {"type": "Feature", "properties": {"norad_id": 30391, "name": "FENGYUN 1C DEB", "group": "fengyun-1c-debris", "lat": 27.559097325866677, "lon": -129.27765791379733, "alt_km": 819.6586645101634, "timestamp": "2025-12-26T06:43:29.787767+00:00", "meta": {"OBJECT_NAME": "FENGYUN 1C DEB", "OBJECT_ID": "1999-025ADE", "EPOCH": "2025-12-25T15:20:25.069056", "MEAN_MOTION": 14.16293504, "ECCENTRICITY": 0.0072073, "INCLINATION": 98.7794, "RA_OF_ASC_NODE": 45.4644, "ARG_OF_PERICENTER": 225.0847, "MEAN_ANOMALY": 261.1349, "EPHEMERIS_TYPE": 0, "CLASSIFICATION_TYPE": "U", "NORAD_CAT_ID": 30391, "ELEMENT_SET_NO": 999, "REV_AT_EPOCH": 97061, "BSTAR": 0.0011465, "MEAN_MOTION_DOT": 2.288e-05, "MEAN_MOTION_DDOT": 0}, "tle": {"line1": "1 30391U 99025ADE 25359.63917904  .00002288  00000+0  11465-2 0  9992", "line2": "2 30391  98.7794  45.4644 0072073 225.0847 261.1349 14.16293504970610"}}, "geometry": {"type": "Point", "coordinates": [-129.27765791379733, 27.559097325866677]}}, {"type": "Feature", "properties": {"norad_id": 30392, "name": "FENGYUN 1C DEB", "group": "fengyun-1c-debris", "lat": 73.88706028008212, "lon": -13.866254208961722, "alt_km": 920.0797601504428, "timestamp": "2025-12-26T06:43:29.787777+00:00", "meta": {"OBJECT_NAME": "FENGYUN 1C DEB", "OBJECT_ID": "1999-025ADF", "EPOCH": "2025-12-25T23:50:16.869984", "MEAN_MOTION": 14.07483822, "ECCENTRICITY": 0.01804247, "INCLINATION": 98.7852, "RA_OF_ASC_NODE": 18.2197, "ARG_OF_PERICENTER": 319.4475, "MEAN_ANOMALY": 102.0034, "EPHEMERIS_TYPE": 0, "CLASSIFICATION_TYPE": "U", "NORAD_CAT_ID": 30392, "ELEMENT_SET_NO": 999, "REV_AT_EPOCH": 96857, "BSTAR": 0.00064922057, "MEAN_MOTION_DOT": 1.224e-05, "MEAN_MOTION_DDOT": 0}, "tle": {"line1": "1 30392U 99025ADF 25359.99325081  .00001224  00000+0  64922-3 0  9997", "line2": "2 30392  98.7852  18.2197 0180424 319.4475 102.0034 14.07483822968572"}}, "geometry": {"type": "Point", "coordinates": [-13.866254208961722, 73.88706028008212]}}, {"type": "Feature", "properties": {"norad_id": 30393, "name": "FENGYUN 1C DEB", "group": "fengyun-1c-debris", "lat": 63.93231674423191, "lon": -102.66794031180709, "alt_km": 906.5903597195038, "timestamp": "2025-12-26T06:43:29.787787+00:00", "meta": {"OBJECT_NAME": "FENGYUN 1C DEB", "OBJECT_ID": "1999-025ADG", "EPOCH": "2025-12-25T02:58:17.374944", "MEAN_MOTION": 13.98992816, "ECCENTRICITY": 0.00701162, "INCLINATION": 99.1639, "RA_OF_ASC_NODE": 56.9092, "ARG_OF_PERICENTER": 225.8144, "MEAN_ANOMALY": 188.5559, "EPHEMERIS_TYPE": 0, "CLASSIFICATION_TYPE": "U", "NORAD_CAT_ID": 30393, "ELEMENT_SET_NO": 999, "REV_AT_EPOCH": 96503, "BSTAR": 9.5115025e-05, "MEAN_MOTION_DOT": 9.5e-07, "MEAN_MOTION_DDOT": 0}, "tle": {"line1": "1 30393U 99025ADG 25359.12381221  .00000095  00000+0  95115-4 0  9995", "line2": "2 30393  99.1639  56.9092 0070116 225.8144 188.5559 13.98992816965039"}}, "geometry": {"type": "Point", "coordinates": [-102.66794031180709, 63.93231674423191]}}, {"type": "Feature", "properties": {"norad_id": 30394, "name": "FENGYUN 1C DEB", "group": "fengyun-1c-debris", "lat": -69.0912759037723, "lon": 54.65928522840075, "alt_km": 962.6190647977446, "timestamp": "2025-12-26T06:43:29.787797+00:00", "meta": {"OBJECT_NAME": "FENGYUN 1C DEB", "OBJECT_ID": "1999-025ADH", "EPOCH": "2025-12-25T14:27:05.779008", "MEAN_MOTION": 13.95795337, "ECCENTRICITY": 0.0089762, "INCLINATION": 99.4335, "RA_OF_ASC_NODE": 28.1689, "ARG_OF_PERICENTER": 66.9183, "MEAN_ANOMALY": 57.2763, "EPHEMERIS_TYPE": 0, "CLASSIFICATION_TYPE": "U", "NORAD_CAT_ID": 30394, "ELEMENT_SET_NO": 999, "REV_AT_EPOCH": 96283, "BSTAR": 0.0003852, "MEAN_MOTION_DOT": 4.98e-06, "MEAN_MOTION_DDOT": 0}, "tle": {"line1": "1 30394U 99025ADH 25359.60215022  .00000498  00000+0  38520-3 0  9997", "line2": "2 30394  99.4335  28.1689 0089762  66.9183  57.2763 13.95795337962833"}}, "geometry": {"type": "Point", "coordinates": [54.65928522840075, -69.0912759037723]}}, {"type": "Feature", "properties": {"norad_id": 30395, "name": "FENGYUN 1C DEB", "group": "fengyun-1c-debris", "lat": 54.00732741678714, "lon": -152.0479655457831, "alt_km": 982.9503042322913, "timestamp": "2025-12-26T06:43:29.787807+00:00", "meta": {"OBJECT_NAME": "FENGYUN 1C DEB", "OBJECT_ID": "1999-025ADJ", "EPOCH": "2025-12-25T13:31:31.060416", "MEAN_MOTION": 13.96709429, "ECCENTRICITY": 0.0159797, "INCLINATION": 98.93, "RA_OF_ASC_NODE": 14.7545, "ARG_OF_PERICENTER": 350.8774, "MEAN_ANOMALY": 131.3282, "EPHEMERIS_TYPE": 0, "CLASSIFICATION_TYPE": "U", "NORAD_CAT_ID": 30395, "ELEMENT_SET_NO": 999, "REV_AT_EPOCH": 96202, "BSTAR": 0.00056283, "MEAN_MOTION_DOT": 8.26e-06, "MEAN_MOTION_DDOT": 0}, "tle": {"line1": "1 30395U 99025ADJ 25359.56355394  .00000826  00000+0  56283-3 0  9991", "line2": "2 30395  98.9300  14.7545 0159797 350.8774 131.3282 13.96709429962028"}}, "geometry": {"type": "Point", "coordinates": [-152.0479655457831, 54.00732741678714]}}]}